ONEWEB-0683             
1 56719U 23068K   25249.89398172 -.00000058  00000+0 -18826-3 0  9998
2 56719  87.9049 315.7052 0002074 104.7692 255.3669 13.15549425112179
ONEWEB-0684             
1 56720U 23068L   25249.67372324 -.00000084  00000+0 -25719-3 0  9995
2 56720  87.9035 315.7487 0000465  92.2269 267.8915 13.15549253111979
ONEWEB-0686             
1 56721U 23068M   25249.85100105  .00000087  00000+0  19350-3 0  9997
2 56721  87.8983 285.2750 0001830 103.5457 256.5878 13.16596021114430
ONEWEB-0694             
1 56722U 23068N   25249.81778151 -.00000002  00000+0 -38335-4 0  9990
2 56722  87.9002 285.2101 0002199 102.8244 257.3133 13.16594440114480
ONEWEB-0696             
1 56723U 23068P   25249.93517242  .00000127  00000+0  30229-3 0  9995
2 56723  87.9046 315.7500 0001625  91.9664 268.1653 13.15548550112124
ONEWEB-0703             
1 56724U 23068Q   25249.71650718  .00000197  00000+0  48857-3 0  9991
2 56724  87.9040 315.7783 0001764  62.5650 297.5660 13.15549419111987
ONEWEB-0721             
1 56725U 23068R   25249.86946676 -.00000052  00000+0 -15888-3 0  9999
2 56725  86.6875 175.8306 0001895  74.7940 285.3403 13.22444137120493
ONEWEB-0015             
1 61594U 24188A   25249.94325096 -.00000363  00000+0 -10605-2 0  9995
2 61594  87.8781  77.5356 0002320  85.5007 274.6385 13.11418795 47333
